GSAT-17                 
1 42815U 17040B   26160.50299237 -.00000241  00000+0  00000+0 0  9990
2 42815   0.1064  88.2650 0001594 212.8419 231.3598  1.00271551 32714
INTELSAT 35E (IS-35E)   
1 42818U 17041A   26160.47761220 -.00000221  00000+0  00000+0 0  9994
2 42818   0.0189   7.5995 0001633  70.2855 317.4382  1.00271510 32738
COSMOS 2520             
1 42907U 17046A   26159.63781562  .00000153  00000+0  00000+0 0  9998
2 42907   0.0442  86.9350 0001169  55.5058  29.2057  1.00270113 32319
TDRS 13                 
1 42915U 17047A   26160.41080638 -.00000085  00000+0  00000+0 0  9997
2 42915   3.4495   2.5239 0014574 105.4917 286.2247  1.00271893 32273
QZS-3 (MICHIBIKI-3)     
1 42917U 17048A   26160.50964119 -.00000331  00000+0  00000+0 0  9999
2 42917   0.0571 178.5271 0002638 268.9689 120.8765  1.00268963 32184
AMAZONAS 5              
1 42934U 17053A   26160.32980735 -.00000266  00000+0  00000+0 0  9993
2 42934   0.0312 323.9850 0002412  64.7103 286.7531  1.00270254 31962
ASIASAT 9               
1 42942U 17057A   26160.65125072 -.00000342  00000+0  00000+0 0  9992
2 42942   0.0120  84.4041 0002403 351.5922 178.5835  1.00270735 31784
INTELSAT 37E (IS-37E)   
1 42950U 17059A   26160.40959303 -.00000124  00000+0  00000+0 0  9996
2 42950   0.0190  10.9566 0002299  91.6448 284.6437  1.00269921 31988
BSAT-4A                 
1 42951U 17059B   26160.00712714 -.00000334  00000+0  00000+0 0  9999
2 42951   0.0365   6.7991 0004164  58.5529 304.4340  1.00272912 31712
QZS-4 (MICHIBIKI-4)     
1 42965U 17062A   26160.36764368 -.00000311  00000+0  00000+0 0  9994
2 42965  40.1130 343.5833 0745074 271.5991 272.5339  1.00253241 31729
SES-11 (ECHOSTAR 105)   
1 42967U 17063A   26160.46365493 -.00000072  00000+0  00000+0 0  9998
2 42967   0.0151 349.9177 0002687 100.2543 229.6300  1.00270812 31642
KOREASAT 5A             
1 42984U 17067A   26160.50689238 -.00000341  00000+0  00000+0 0  9991
2 42984   0.0100 320.5013 0000547 126.1460 106.8754  1.00270964 31453
ALCOMSAT 1              
1 43039U 17078A   26160.40820637 -.00000169  00000+0  00000+0 0  9992
2 43039   0.0359  72.3478 0002339   2.2307 305.3691  1.00272547 31212
SBIRS GEO-3 (USA 282)   
1 43162U 18009A   26160.48543417  .00000144  00000+0  00000+0 0  9992
2 43162   2.1782  11.7113 0002023  62.5630 198.9486  1.00271867 30764
AL YAH 3                
1 43174U 18012A   26160.30253185 -.00000138  00000+0  00000+0 0  9994
2 43174   1.5304  83.2038 0004087 355.4920 267.8041  1.00271230 30765
SES-14                  
1 43175U 18012B   26160.47501219 -.00000261  00000+0  00000+0 0  9994
2 43175   0.0220  31.0141 0001057  53.8990 296.4420  1.00270313  6946
GOES 17                 
1 43226U 18022A   26160.39537963 -.00000166  00000+0  00000+0 0  9992
2 43226   0.9164  85.8552 0000572  14.3210 210.4459  1.00271522 30342
HISPASAT 30W-6          
1 43228U 18023A   26160.19333439 -.00000199  00000+0  00000+0 0  9991
2 43228   0.0466  43.0702 0006065  24.4046 229.6971  1.00270107 30322
SUPERBIRD-B3            
1 43271U 18033A   26160.52822507 -.00000075  00000+0  00000+0 0  9999
2 43271   0.0172 297.5205 0001258 163.9937 148.5555  1.00270780 29989
HYLAS 4                 
1 43272U 18033B   26160.47778553 -.00000216  00000+0  00000+0 0  9992
2 43272   0.0194  57.3369 0001003  29.6517 309.4007  1.00269264 29982
IRNSS-1I                
1 43286U 18035A   26159.97936503  .00000092  00000+0  00000+0 0  9994
2 43286  28.7349  74.3250 0017795 182.7620  47.7314  1.00270374 29993
USA 283                 
1 43339U 18036A   26158.44341078  .00000000  00000+0  00000+0 0  9991
2 43339   0.0123 333.7419 0000458 159.1187  56.7029  1.00268454 25195
COSMOS 2526             
1 43432U 18037A   26160.29595498 -.00000327  00000+0  00000+0 0  9992
2 43432   0.0147  11.4942 0000463 198.5933 282.2090  1.00274990 29884
APSTAR-6C               
1 43450U 18041A   26160.51094120 -.00000300  00000+0  00000+0 0  9999
2 43450   0.0251 332.4419 0001184  20.4488 222.9475  1.00272714 29738
BANGABANDHUSAT-1        
1 43463U 18044A   26160.43670054  .00000000  00000+0  00000+0 0  9999
2 43463   0.0162 337.6692 0001757 104.0700  92.3797  1.00268399 29634
SES-12                  
1 43488U 18049A   26160.50325237 -.00000252  00000+0  00000+0 0  9999
2 43488   0.0278  43.2072 0000900 243.5865 247.2566  1.00269254 29345
FENGYUN 2H              
1 43491U 18050A   26160.64281031 -.00000114  00000+0  00000+0 0  9990
2 43491   3.0108  79.1628 0001642 127.7328   1.9796  1.00271035 29362
BEIDOU-2 IGSO-7         
1 43539U 18057A   26160.43496720  .00000036  00000+0  00000+0 0  9992
2 43539  55.1933 163.1254 0104876 237.9492 123.8731  1.00253775 29057
TELSTAR 19V             
1 43562U 18059A   26160.04519647 -.00000262  00000+0  00000+0 0  9993
2 43562   0.0357 175.1217 0003228 305.1580  90.4046  1.00255741 29063
TELKOM 4 (MERAH PUTIH)  
1 43587U 18064A   26160.50585238  .00000000  00000+0  00000+0 0  9995
2 43587   0.0170 345.7773 0001331 127.7283  74.4809  1.00268153 28807
TELSTAR 18V             
1 43611U 18069A   26160.51180787 -.00000277  00000+0  00000+0 0  9996
2 43611   0.0191 288.9617 0001807 146.1025 145.0913  1.00270563 28562
